[{"OBJECT_NAME":"STARLINK-4472","OBJECT_ID":"2022-105P","EPOCH":"2026-03-09T14:59:47.243904","MEAN_MOTION":15.01262358,"ECCENTRICITY":6.18e-5,"INCLINATION":97.6032,"RA_OF_ASC_NODE":310.1441,"ARG_OF_PERICENTER":101.6515,"MEAN_ANOMALY":258.4778,"EPHEMERIS_TYPE":0,"CLASSIFICATION_TYPE":"U","NORAD_CAT_ID":53661,"ELEMENT_SET_NO":999,"REV_AT_EPOCH":19322,"BSTAR":4.5629e-5,"MEAN_MOTION_DOT":5.28e-6,"MEAN_MOTION_DDOT":0},{"OBJECT_NAME":"GNOMES-4","OBJECT_ID":"2023-185A","EPOCH":"2026-03-09T23:48:26.932032","MEAN_MOTION":15.00198915,"ECCENTRICITY":0.000923,"INCLINATION":97.5118,"RA_OF_ASC_NODE":129.6992,"ARG_OF_PERICENTER":282.2655,"MEAN_ANOMALY":77.7535,"EPHEMERIS_TYPE":0,"CLASSIFICATION_TYPE":"U","NORAD_CAT_ID":58462,"ELEMENT_SET_NO":999,"REV_AT_EPOCH":12441,"BSTAR":0.00042532845,"MEAN_MOTION_DOT":5.265e-5,"MEAN_MOTION_DDOT":0}]
